[{"OBJECT_NAME":"KUIPER-00040","OBJECT_ID":"2025-134B","EPOCH":"2026-03-09T21:18:32.999616","MEAN_MOTION":14.79929263,"ECCENTRICITY":0.00125524,"INCLINATION":51.8992,"RA_OF_ASC_NODE":243.3551,"ARG_OF_PERICENTER":267.3523,"MEAN_ANOMALY":92.6003,"EPHEMERIS_TYPE":0,"CLASSIFICATION_TYPE":"U","NORAD_CAT_ID":64501,"ELEMENT_SET_NO":999,"REV_AT_EPOCH":3994,"BSTAR":0.00059131021,"MEAN_MOTION_DOT":4.292e-5,"MEAN_MOTION_DDOT":0},{"OBJECT_NAME":"FENGYUN 1C DEB","OBJECT_ID":"1999-025WE","EPOCH":"2026-03-09T19:42:18.012384","MEAN_MOTION":14.46050841,"ECCENTRICITY":0.01452421,"INCLINATION":98.9476,"RA_OF_ASC_NODE":166.3185,"ARG_OF_PERICENTER":140.9527,"MEAN_ANOMALY":220.2256,"EPHEMERIS_TYPE":0,"CLASSIFICATION_TYPE":"U","NORAD_CAT_ID":30221,"ELEMENT_SET_NO":999,"REV_AT_EPOCH":660,"BSTAR":0.00041833951,"MEAN_MOTION_DOT":1.646e-5,"MEAN_MOTION_DDOT":0}]
